start=new Date('2021-11-27T00:00:00.000Z').valueOf();
sats=[{"PERIAPSIS":"545.838","PERIOD":"95.592","INCLINATION":"53.0539","NORAD_CAT_ID":"48319","ARG_OF_PERICENTER":"55.3228","REF_FRAME":"TEME","ELEMENT_SET_NO":"999","TIME_SYSTEM":"UTC","APOAPSIS":"548.582","CENTER_NAME":"EARTH","OBJECT_TYPE":"PAYLOAD","MEAN_MOTION_DOT":"0.00001507","SEMIMAJOR_AXIS":"6925.345","ECCENTRICITY":"0.00019810","EPHEMERIS_TYPE":"0","COUNTRY_CODE":"US","BSTAR":"0.00012005000000","MEAN_MOTION_DDOT":"0.0000000000000","CLASSIFICATION_TYPE":"U","EPOCH":"2021-11-26T14:14:51.739296","MEAN_ANOMALY":"304.7947","GP_ID":"190534253","TLE_LINE1":"1 48319U 21036AV  21330.59365439  .00001507  00000-0  12005-3 0  9994","SITE":"AFETR","MEAN_ELEMENT_THEORY":"SGP4","RCS_SIZE":"LARGE","LAUNCH_DATE":"2021-04-29","FILE":"3224788","RA_OF_ASC_NODE":"283.1136","TLE_LINE2":"2 48319  53.0539 283.1136 0001981  55.3228 304.7947 15.06401237 32929","OBJECT_NAME":"STARLINK-2512","MEAN_MOTION":"15.06401237","DECAY_DATE":null,"REV_AT_EPOCH":"3292","OBJECT_ID":"2021-036AV"},{"MEAN_MOTION_DOT":"0.00001595","OBJECT_TYPE":"PAYLOAD","CENTER_NAME":"EARTH","EPHEMERIS_TYPE":"0","ECCENTRICITY":"0.00019670","SEMIMAJOR_AXIS":"6925.349","NORAD_CAT_ID":"48320","INCLINATION":"53.0547","PERIAPSIS":"545.852","PERIOD":"95.592","REF_FRAME":"TEME","ARG_OF_PERICENTER":"55.6855","TIME_SYSTEM":"UTC","APOAPSIS":"548.577","ELEMENT_SET_NO":"999","RCS_SIZE":"LARGE","MEAN_ELEMENT_THEORY":"SGP4","RA_OF_ASC_NODE":"282.8238","FILE":"3224952","LAUNCH_DATE":"2021-04-29","TLE_LINE1":"1 48320U 21036AW  21330.65631324  .00001595  00000-0  12599-3 0  9997","SITE":"AFETR","MEAN_MOTION":"15.06399704","REV_AT_EPOCH":"3229","OBJECT_ID":"2021-036AW","DECAY_DATE":null,"OBJECT_NAME":"STARLINK-2029","TLE_LINE2":"2 48320  53.0547 282.8238 0001967  55.6855 304.4320 15.06399704 32299","CLASSIFICATION_TYPE":"U","EPOCH":"2021-11-26T15:45:05.463936","BSTAR":"0.00012599000000","COUNTRY_CODE":"US","MEAN_MOTION_DDOT":"0.0000000000000","MEAN_ANOMALY":"304.4320","GP_ID":"190559511"},{"MEAN_ANOMALY":"303.1534","GP_ID":"190559758","MEAN_MOTION_DDOT":"0.0000000000000","BSTAR":"0.00004194800000","COUNTRY_CODE":"US","CLASSIFICATION_TYPE":"U","EPOCH":"2021-11-26T22:01:56.481312","OBJECT_NAME":"STARLINK-2457","TLE_LINE2":"2 48321  53.0554 281.6519 0002101  56.9656 303.1534 15.06398129 32339","OBJECT_ID":"2021-036AX","REV_AT_EPOCH":"3233","DECAY_DATE":null,"MEAN_MOTION":"15.06398129","TLE_LINE1":"1 48321U 21036AX  21330.91801483  .00000343  00000-0  41948-4 0  9993","SITE":"AFETR","RA_OF_ASC_NODE":"281.6519","FILE":"3224952","LAUNCH_DATE":"2021-04-29","RCS_SIZE":"LARGE","MEAN_ELEMENT_THEORY":"SGP4","APOAPSIS":"548.674","TIME_SYSTEM":"UTC","ELEMENT_SET_NO":"999","REF_FRAME":"TEME","ARG_OF_PERICENTER":"56.9656","PERIAPSIS":"545.764","PERIOD":"95.592","NORAD_CAT_ID":"48321","INCLINATION":"53.0554","SEMIMAJOR_AXIS":"6925.354","EPHEMERIS_TYPE":"0","ECCENTRICITY":"0.00021010","CENTER_NAME":"EARTH","MEAN_MOTION_DOT":"0.00000343","OBJECT_TYPE":"PAYLOAD"},{"TIME_SYSTEM":"UTC","APOAPSIS":"548.718","ELEMENT_SET_NO":"999","REF_FRAME":"TEME","ARG_OF_PERICENTER":"42.9940","NORAD_CAT_ID":"48322","INCLINATION":"53.0521","PERIOD":"95.592","PERIAPSIS":"545.701","EPHEMERIS_TYPE":"0","ECCENTRICITY":"0.00021780","SEMIMAJOR_AXIS":"6925.344","MEAN_MOTION_DOT":"-0.00000083","OBJECT_TYPE":"PAYLOAD","CENTER_NAME":"EARTH","GP_ID":"190560014","MEAN_ANOMALY":"317.1219","CLASSIFICATION_TYPE":"U","EPOCH":"2021-11-26T20:21:05.866848","MEAN_MOTION_DDOT":"0.0000000000000","BSTAR":"0.00001337500000","COUNTRY_CODE":"US","REV_AT_EPOCH":"3232","OBJECT_ID":"2021-036AY","DECAY_DATE":null,"MEAN_MOTION":"15.06401372","OBJECT_NAME":"STARLINK-2477","TLE_LINE2":"2 48322  53.0521 281.9612 0002178  42.9940 317.1219 15.06401372 32325","RA_OF_ASC_NODE":"281.9612","FILE":"3224952","LAUNCH_DATE":"2021-04-29","RCS_SIZE":"LARGE","MEAN_ELEMENT_THEORY":"SGP4","TLE_LINE1":"1 48322U 21036AY  21330.84798457 -.00000083  00000-0  13375-4 0  9997","SITE":"AFETR"},{"OBJECT_TYPE":"PAYLOAD","MEAN_MOTION_DOT":"0.00000006","CENTER_NAME":"EARTH","ECCENTRICITY":"0.00018190","EPHEMERIS_TYPE":"0","SEMIMAJOR_AXIS":"6925.350","INCLINATION":"53.0560","NORAD_CAT_ID":"48323","PERIAPSIS":"545.956","PERIOD":"95.592","ARG_OF_PERICENTER":"61.7658","REF_FRAME":"TEME","ELEMENT_SET_NO":"999","TIME_SYSTEM":"UTC","APOAPSIS":"548.475","MEAN_ELEMENT_THEORY":"SGP4","RCS_SIZE":"LARGE","FILE":"3224704","LAUNCH_DATE":"2021-04-29","RA_OF_ASC_NODE":"283.1842","TLE_LINE1":"1 48323U 21036AZ  21330.57890953  .00000006  00000-0  19315-4 0  9996","SITE":"AFETR","MEAN_MOTION":"15.06399409","DECAY_DATE":null,"OBJECT_ID":"2021-036AZ","REV_AT_EPOCH":"3228","TLE_LINE2":"2 48323  53.0560 283.1842 0001819  61.7658 298.3514 15.06399409 32284","OBJECT_NAME":"STARLINK-2515","CLASSIFICATION_TYPE":"U","EPOCH":"2021-11-26T13:53:37.783392","COUNTRY_CODE":"US","BSTAR":"0.00001931500000","MEAN_MOTION_DDOT":"0.0000000000000","GP_ID":"190530459","MEAN_ANOMALY":"298.3514"},{"REF_FRAME":"TEME","ARG_OF_PERICENTER":"35.9836","APOAPSIS":"548.357","TIME_SYSTEM":"UTC","ELEMENT_SET_NO":"999","NORAD_CAT_ID":"48324","INCLINATION":"53.0557","PERIAPSIS":"546.048","PERIOD":"95.592","EPHEMERIS_TYPE":"0","ECCENTRICITY":"0.00016670","SEMIMAJOR_AXIS":"6925.337","MEAN_MOTION_DOT":"0.00001865","OBJECT_TYPE":"PAYLOAD","CENTER_NAME":"EARTH","GP_ID":"190534366","MEAN_ANOMALY":"324.1265","CLASSIFICATION_TYPE":"U","EPOCH":"2021-11-26T13:48:18.898272","BSTAR":"0.00014406000000","COUNTRY_CODE":"US","MEAN_MOTION_DDOT":"0.0000000000000","MEAN_MOTION":"15.06403730","OBJECT_ID":"2021-036BA","REV_AT_EPOCH":"3287","DECAY_DATE":null,"OBJECT_NAME":"STARLINK-2527","TLE_LINE2":"2 48324  53.0557 283.2096 0001667  35.9836 324.1265 15.06403730 32874","RCS_SIZE":"LARGE","MEAN_ELEMENT_THEORY":"SGP4","RA_OF_ASC_NODE":"283.2096","LAUNCH_DATE":"2021-04-29","FILE":"3224799","TLE_LINE1":"1 48324U 21036BA  21330.57521873  .00001865  00000-0  14406-3 0  9998","SITE":"AFETR"},{"RA_OF_ASC_NODE":"283.2247","LAUNCH_DATE":"2021-04-29","FILE":"3224819","RCS_SIZE":"LARGE","MEAN_ELEMENT_THEORY":"SGP4","TLE_LINE1":"1 48325U 21036BB  21330.57153321  .00000093  00000-0  25175-4 0  9996","SITE":"AFETR","OBJECT_ID":"2021-036BB","REV_AT_EPOCH":"3287","DECAY_DATE":null,"MEAN_MOTION":"15.06400084","OBJECT_NAME":"STARLINK-2495","TLE_LINE2":"2 48325  53.0565 283.2247 0001910  55.6717 304.4453 15.06400084 32879","CLASSIFICATION_TYPE":"U","EPOCH":"2021-11-26T13:43:00.469344","MEAN_MOTION_DDOT":"0.0000000000000","BSTAR":"0.00002517500000","COUNTRY_CODE":"US","MEAN_ANOMALY":"304.4453","GP_ID":"190534750","MEAN_MOTION_DOT":"0.00000093","OBJECT_TYPE":"PAYLOAD","CENTER_NAME":"EARTH","EPHEMERIS_TYPE":"0","ECCENTRICITY":"0.00019100","SEMIMAJOR_AXIS":"6925.348","NORAD_CAT_ID":"48325","INCLINATION":"53.0565","PERIOD":"95.592","PERIAPSIS":"545.891","APOAPSIS":"548.536","TIME_SYSTEM":"UTC","ELEMENT_SET_NO":"999","REF_FRAME":"TEME","ARG_OF_PERICENTER":"55.6717"},{"CLASSIFICATION_TYPE":"U","EPOCH":"2021-11-26T13:37:42.322944","MEAN_MOTION_DDOT":"0.0000000000000","COUNTRY_CODE":"US","BSTAR":"0.00014391000000","MEAN_ANOMALY":"310.8530","GP_ID":"190530208","LAUNCH_DATE":"2021-04-29","FILE":"3224704","RA_OF_ASC_NODE":"283.2226","MEAN_ELEMENT_THEORY":"SGP4","RCS_SIZE":"LARGE","SITE":"AFETR","TLE_LINE1":"1 48326U 21036BC  21330.56785096  .00001862  00000-0  14391-3 0  9998","DECAY_DATE":null,"REV_AT_EPOCH":"3228","OBJECT_ID":"2021-036BC","MEAN_MOTION":"15.06398012","TLE_LINE2":"2 48326  53.0555 283.2226 0002385  49.2666 310.8530 15.06398012 32284","OBJECT_NAME":"STARLINK-2498","INCLINATION":"53.0555","NORAD_CAT_ID":"48326","PERIAPSIS":"545.568","PERIOD":"95.592","ELEMENT_SET_NO":"999","TIME_SYSTEM":"UTC","APOAPSIS":"548.871","ARG_OF_PERICENTER":"49.2666","REF_FRAME":"TEME","OBJECT_TYPE":"PAYLOAD","MEAN_MOTION_DOT":"0.00001862","CENTER_NAME":"EARTH","ECCENTRICITY":"0.00023850","EPHEMERIS_TYPE":"0","SEMIMAJOR_AXIS":"6925.355"},{"ELEMENT_SET_NO":"999","APOAPSIS":"548.497","TIME_SYSTEM":"UTC","ARG_OF_PERICENTER":"52.2780","REF_FRAME":"TEME","INCLINATION":"53.0542","NORAD_CAT_ID":"48327","PERIAPSIS":"545.942","PERIOD":"95.592","ECCENTRICITY":"0.00018440","EPHEMERIS_TYPE":"0","SEMIMAJOR_AXIS":"6925.355","OBJECT_TYPE":"PAYLOAD","MEAN_MOTION_DOT":"0.00000520","CENTER_NAME":"EARTH","GP_ID":"190533388","MEAN_ANOMALY":"307.8376","CLASSIFICATION_TYPE":"U","EPOCH":"2021-11-26T13:32:23.905248","MEAN_MOTION_DDOT":"0.0000000000000","COUNTRY_CODE":"US","BSTAR":"0.00005378900000","DECAY_DATE":null,"REV_AT_EPOCH":"3287","OBJECT_ID":"2021-036BD","MEAN_MOTION":"15.06398057","TLE_LINE2":"2 48327  53.0542 283.2365 0001844  52.2780 307.8376 15.06398057 32873","OBJECT_NAME":"STARLINK-2502","FILE":"3224765","LAUNCH_DATE":"2021-04-29","RA_OF_ASC_NODE":"283.2365","MEAN_ELEMENT_THEORY":"SGP4","RCS_SIZE":"LARGE","SITE":"AFETR","TLE_LINE1":"1 48327U 21036BD  21330.56416557  .00000520  00000-0  53789-4 0  9997"},{"MEAN_ANOMALY":"296.4934","GP_ID":"190559512","MEAN_MOTION_DDOT":"0.0000000000000","COUNTRY_CODE":"US","BSTAR":"0.00011767000000","CLASSIFICATION_TYPE":"U","EPOCH":"2021-11-26T21:24:46.996704","TLE_LINE2":"2 48328  53.0553 281.7673 0001771  63.6237 296.4934 15.06400288 32337","OBJECT_NAME":"STARLINK-2504","DECAY_DATE":null,"REV_AT_EPOCH":"3233","OBJECT_ID":"2021-036BE","MEAN_MOTION":"15.06400288","TLE_LINE1":"1 48328U 21036BE  21330.89221061  .00001472  00000-0  11767-3 0  9994","SITE":"AFETR","FILE":"3224952","LAUNCH_DATE":"2021-04-29","RA_OF_ASC_NODE":"281.7673","MEAN_ELEMENT_THEORY":"SGP4","RCS_SIZE":"LARGE","ELEMENT_SET_NO":"999","TIME_SYSTEM":"UTC","APOAPSIS":"548.439","ARG_OF_PERICENTER":"63.6237","REF_FRAME":"TEME","PERIAPSIS":"545.986","PERIOD":"95.592","INCLINATION":"53.0553","NORAD_CAT_ID":"48328","SEMIMAJOR_AXIS":"6925.348","ECCENTRICITY":"0.00017710","EPHEMERIS_TYPE":"0","CENTER_NAME":"EARTH","OBJECT_TYPE":"PAYLOAD","MEAN_MOTION_DOT":"0.00001472"}];
